AOR-E (EGNOS/PRN 120)   
1 24307U 96053A   10086.07473825 -.00000141  00000-0  10000-3 0  1601
2 24307   0.0827 318.5716 0005586  31.9732 205.2458  1.00271840 49625
IOR-W (EGNOS/PRN 126)   
1 25153U 98006B   10088.77561883  .00000123  00000-0  10000-3 0   172
2 25153   0.4990   2.7674 0003859   9.9191 118.3050  1.00268993 44532
ARTEMIS (EGNOS/PRN 124) 
1 26863U 01029A   10088.68563001  .00000113  00000-0  10000-3 0  8610
2 26863   8.1332  65.1912 0004500 316.2897  73.6453  1.00272456 33015
MTSAT-1R (MSAS/PRN 129) 
1 28622U 05006A   10087.60292804 -.00000298  00000-0  10000-3 0  3479
2 28622   0.0546  19.8874 0001711 122.6948  40.4224  1.00271894 18609
IOR (GAGAN/PRN 127)     
1 28628U 05009A   10088.67505581 -.00000279  00000-0  10000-3 0  2710
2 28628   2.3535 329.6917 0002976  35.7118 208.0526  1.00271531 18284
ANIK F1R (WAAS/PRN 138) 
1 28868U 05036A   10088.77280101 -.00000091  00000-0  00000+0 0  7661
2 28868   0.0129 158.1984 0001871 249.2861 310.4506  1.00272995 16754
GALAXY 15 (WAAS/PRN 135)
1 28884U 05041A   10088.55674175  .00000062  00000-0  10000-3 0  7931
2 28884   0.0393  65.5139 0002558 302.0032 246.7340  1.00272865 16347
MTSAT-2 (MSAS/PRN 137)  
1 28937U 06004A   10088.66000662 -.00000260  00000-0  10000-3 0  7252
2 28937   0.0590 278.5059 0003700  85.0896 205.9736  1.00270170 15092
